
# Worst residual: 5.19 km
# MJD 58260.000000 (2018 May 22  0:00)
1983-020A = NORAD 13901 = ASTRON
1 13901U 83020A   18142.49919926  .00000000  00000-0  00000-0 0  3738
2 13901 043.2262 243.0971 7434897 182.8193 208.3337 00.24294985    04

# Worst residual: 8.83 km
# MJD 58261.000000 (2018 May 23  0:00)
1983-020A = NORAD 13901 = ASTRON
1 13901U 83020A   18143.49919926  .00000000  00000-0  00000-0 0  3739
2 13901 043.1442 243.0553 7433861 182.8274 295.8005 00.24272254    07

# Worst residual: 13.08 km
# MJD 58262.000000 (2018 May 24  0:00)
1983-020A = NORAD 13901 = ASTRON
1 13901U 83020A   18144.49919926  .00000000  00000-0  00000-0 0  3730
2 13901 043.1144 243.0299 7437051 182.8719 023.1631 00.24283383    04

# Worst residual: 10.02 km
# MJD 58263.000000 (2018 May 25  0:00)
1983-020A = NORAD 13901 = ASTRON
1 13901U 83020A   18145.49919926  .00000000  00000-0  00000-0 0  3731
2 13901 043.1316 242.9832 7445319 182.8878 110.5117 00.24288849    00

# Worst residual: 9.27 km
# MJD 58264.000000 (2018 May 26  0:00)
1983-020A = NORAD 13901 = ASTRON
1 13901U 83020A   18146.49919926  .00000000  00000-0  00000-0 0  3732
2 13901 043.1859 242.9596 7455281 182.9120 197.9310 00.24301006    04

# Worst residual: 41.10 km
# MJD 58265.000000 (2018 May 27  0:00)
1983-020A = NORAD 13901 = ASTRON
1 13901U 83020A   18147.49919926  .00000000  00000-0  00000-0 0  3733
2 13901 043.2036 242.9646 7462075 182.8300 285.7370 00.24257747    00

# Worst residual: 60.34 km
# MJD 58266.000000 (2018 May 28  0:00)
1983-020A = NORAD 13901 = ASTRON
1 13901U 83020A   18148.49919926  .00000000  00000-0  00000-0 0  3734
2 13901 043.1834 242.9657 7481912 182.9519 013.1055 00.24182399    04

# Worst residual: 7.15 km
# MJD 58267.000000 (2018 May 29  0:00)
1983-020A = NORAD 13901 = ASTRON
1 13901U 83020A   18149.49919926  .00000000  00000-0  00000-0 0  3735
2 13901 043.1248 242.9884 7470848 182.9880 100.5539 00.24267250    00

# Worst residual: 10.43 km
# MJD 58268.000000 (2018 May 30  0:00)
1983-020A = NORAD 13901 = ASTRON
1 13901U 83020A   18150.49919926  .00000000  00000-0  00000-0 0  3737
2 13901 042.9361 242.9949 7474204 183.0502 187.6450 00.24255993    07

# Worst residual: 11.74 km
# MJD 58269.000000 (2018 May 31  0:00)
1983-020A = NORAD 13901 = ASTRON
1 13901U 83020A   18151.49919926  .00000000  00000-0  00000-0 0  3738
2 13901 042.8003 242.9439 7479214 183.1030 274.9619 00.24253248    04

# Worst residual: 33.64 km
# MJD 58270.000000 (2018 Jun  1  0:00)
1983-020A = NORAD 13901 = ASTRON
1 13901U 83020A   18152.49919926  .00000000  00000-0  00000-0 0  3739
2 13901 042.7562 242.9035 7492026 183.1818 002.3059 00.24198074    01

# Worst residual: 11.53 km
# MJD 58271.000000 (2018 Jun  2  0:00)
1983-020A = NORAD 13901 = ASTRON
1 13901U 83020A   18153.49919926  .00000000  00000-0  00000-0 0  3730
2 13901 042.7351 242.8948 7485506 183.2082 089.7543 00.24284858    01

# Worst residual: 4.48 km
# MJD 58272.000000 (2018 Jun  3  0:00)
1983-020A = NORAD 13901 = ASTRON
1 13901U 83020A   18154.49919926  .00000000  00000-0  00000-0 0  3731
2 13901 042.7505 242.8739 7488161 183.2063 177.3273 00.24299863    05

# Worst residual: 2.48 km
# MJD 58273.000000 (2018 Jun  4  0:00)
1983-020A = NORAD 13901 = ASTRON
1 13901U 83020A   18155.49919926  .00000000  00000-0  00000-0 0  3732
2 13901 042.7569 242.8667 7491254 183.2164 264.8264 00.24296254    07

# Worst residual: 6.51 km
# MJD 58274.000000 (2018 Jun  5  0:00)
1983-020A = NORAD 13901 = ASTRON
1 13901U 83020A   18156.49919926  .00000000  00000-0  00000-0 0  3733
2 13901 042.7261 242.8415 7493810 183.2383 352.2558 00.24287366    02

# Worst residual: 5.24 km
# MJD 58275.000000 (2018 Jun  6  0:00)
1983-020A = NORAD 13901 = ASTRON
1 13901U 83020A   18157.49919926  .00000000  00000-0  00000-0 0  3734
2 13901 042.7070 242.8195 7498355 183.2446 079.6673 00.24298279    07

# Worst residual: 3.15 km
# MJD 58276.000000 (2018 Jun  7  0:00)
1983-020A = NORAD 13901 = ASTRON
1 13901U 83020A   18158.49919926  .00000000  00000-0  00000-0 0  3735
2 13901 042.6912 242.8012 7501559 183.3031 166.9655 00.24286286    06

# Worst residual: 10.98 km
# MJD 58277.000000 (2018 Jun  8  0:00)
1983-020A = NORAD 13901 = ASTRON
1 13901U 83020A   18159.49919926  .00000000  00000-0  00000-0 0  3736
2 13901 042.6604 242.7848 7501598 183.3152 254.3975 00.24274761    09

# Worst residual: 39.11 km
# MJD 58278.000000 (2018 Jun  9  0:00)
1983-020A = NORAD 13901 = ASTRON
1 13901U 83020A   18160.49919926  .00000000  00000-0  00000-0 0  3738
2 13901 042.6402 242.7807 7514716 183.3154 341.9272 00.24199893    03

# Worst residual: 10.46 km
# MJD 58279.000000 (2018 Jun 10  0:00)
1983-020A = NORAD 13901 = ASTRON
1 13901U 83020A   18161.49919926  .00000000  00000-0  00000-0 0  3739
2 13901 042.6110 242.7788 7511215 183.3694 069.2390 00.24276881    01

# Worst residual: 2.35 km
# MJD 58280.000000 (2018 Jun 11  0:00)
1983-020A = NORAD 13901 = ASTRON
1 13901U 83020A   18162.49919926  .00000000  00000-0  00000-0 0  3730
2 13901 042.5634 242.7732 7512757 183.3878 156.6366 00.24280567    06

# Worst residual: 8.99 km
# MJD 58281.000000 (2018 Jun 12  0:00)
1983-020A = NORAD 13901 = ASTRON
1 13901U 83020A   18163.49919926  .00000000  00000-0  00000-0 0  3731
2 13901 042.5653 242.7647 7510167 183.3941 244.0405 00.24265499    09

# Worst residual: 43.27 km
# MJD 58282.000000 (2018 Jun 13  0:00)
1983-020A = NORAD 13901 = ASTRON
1 13901U 83020A   18164.49919926  .00000000  00000-0  00000-0 0  3732
2 13901 042.5479 242.7477 7521841 183.3719 331.5957 00.24184667    01

# Worst residual: 32.90 km
# MJD 58283.000000 (2018 Jun 14  0:00)
1983-020A = NORAD 13901 = ASTRON
1 13901U 83020A   18165.49919926  .00000000  00000-0  00000-0 0  3733
2 13901 042.5450 242.7554 7516776 183.5172 058.7801 00.24243880    01

# Worst residual: 2.95 km
# MJD 58284.000000 (2018 Jun 15  0:00)
1983-020A = NORAD 13901 = ASTRON
1 13901U 83020A   18166.49919926  .00000000  00000-0  00000-0 0  3734
2 13901 042.5224 242.7485 7517370 183.4937 146.3123 00.24282820    00

# Worst residual: 8.06 km
# MJD 58285.000000 (2018 Jun 16  0:00)
1983-020A = NORAD 13901 = ASTRON
1 13901U 83020A   18167.49919926  .00000000  00000-0  00000-0 0  3735
2 13901 042.5315 242.7362 7520150 183.5528 233.5490 00.24284769    02

# Worst residual: 18.40 km
# MJD 58286.000000 (2018 Jun 17  0:00)
1983-020A = NORAD 13901 = ASTRON
1 13901U 83020A   18168.49919926  .00000000  00000-0  00000-0 0  3736
2 13901 042.4813 242.6950 7519230 183.6536 320.7589 00.24327314    05

# Worst residual: 15.91 km
# MJD 58287.000000 (2018 Jun 18  0:00)
1983-020A = NORAD 13901 = ASTRON
1 13901U 83020A   18169.49919926  .00000000  00000-0  00000-0 0  3737
2 13901 042.4686 242.6586 7521332 183.6072 048.3044 00.24335383    03
